{"version": 0.6, "generator": "Overpass API 0.7.62.7 375dc00a", "osm3s": {"timestamp_osm_base": "2025-06-16T09:06:20Z", "copyright": "The data included in this document is from www.openstreetmap.org. The data is made available under ODbL."}, "elements": [{"type": "node", "id": 61971737, "lat": 39.6601334, "lon": 19.8387915, "tags": {"highway": "traffic_signals"}}, {"type": "node", "id": 61983048, "lat": 39.6370374, "lon": 19.8712643, "tags": {"highway": "traffic_signals", "traffic_signals": "signal"}}, {"type": "node", "id": 320196491, "lat": 39.6154982, "lon": 19.8428965, "tags": {"highway": "traffic_signals", "traffic_signals": "signal"}}, {"type": "node", "id": 320610089, "lat": 39.743002, "lon": 19.9278768, "tags": {"highway": "traffic_signals", "traffic_signals": "signal"}}, {"type": "node", "id": 702278645, "lat": 39.6292144, "lon": 19.8872487, "tags": {"highway": "traffic_signals"}}, {"type": "node", "id": 702278666, "lat": 39.6292978, "lon": 19.8871954, "tags": {"highway": "traffic_signals"}}, {"type": "node", "id": 1092650404, "lat": 39.6520092, "lon": 19.8422745, "tags": {"highway": "traffic_signals", "traffic_signals": "traffic_lights"}}, {"type": "node", "id": 1260087473, "lat": 39.6369873, "lon": 19.871891, "tags": {"highway": "traffic_signals", "traffic_signals": "signal"}}, {"type": "node", "id": 1260088101, "lat": 39.636867, "lon": 19.8713091, "tags": {"highway": "traffic_signals", "traffic_signals": "signal"}}, {"type": "node", "id": 1260240781, "lat": 39.6328729, "lon": 19.8805237, "tags": {"highway": "traffic_signals", "traffic_signals": "signal"}}, {"type": "node", "id": 1289494293, "lat": 39.6616171, "lon": 19.8509587, "tags": {"crossing": "no", "highway": "traffic_signals", "note": "between the two signals, it's one way traffic and the direction changes every 2min30sec", "traffic_signals:direction": "backward"}}, {"type": "node", "id": 1313731690, "lat": 39.6269698, "lon": 19.9041555, "tags": {"highway": "traffic_signals", "traffic_signals": "traffic_lights"}}, {"type": "node", "id": 1313731821, "lat": 39.6269302, "lon": 19.9038286, "tags": {"highway": "traffic_signals", "traffic_signals": "traffic_lights"}}, {"type": "node", "id": 1315597848, "lat": 39.6368543, "lon": 19.8720547, "tags": {"highway": "traffic_signals", "traffic_signals": "signal"}}, {"type": "node", "id": 1315597856, "lat": 39.6330839, "lon": 19.8809177, "tags": {"highway": "traffic_signals"}}, {"type": "node", "id": 1315597877, "lat": 39.6330902, "lon": 19.8805896, "tags": {"highway": "traffic_signals"}}, {"type": "node", "id": 1315640838, "lat": 39.6444114, "lon": 19.8539166, "tags": {"highway": "traffic_signals", "traffic_signals": "traffic_lights", "traffic_signals:direction": "forward"}}, {"type": "node", "id": 1315640897, "lat": 39.6445884, "lon": 19.854396, "tags": {"highway": "traffic_signals", "traffic_signals": "traffic_lights", "traffic_signals:direction": "forward"}}, {"type": "node", "id": 1315670983, "lat": 39.6447587, "lon": 19.8506459, "tags": {"highway": "traffic_signals"}}, {"type": "node", "id": 1315671026, "lat": 39.6601888, "lon": 19.8385625, "tags": {"highway": "traffic_signals"}}, {"type": "node", "id": 1315671037, "lat": 39.6447289, "lon": 19.8503719, "tags": {"highway": "traffic_signals"}}, {"type": "node", "id": 1315671102, "lat": 39.6517951, "lon": 19.8423703, "tags": {"highway": "traffic_signals", "traffic_signals": "traffic_lights"}}, {"type": "node", "id": 1315671151, "lat": 39.65994, "lon": 19.8386529, "tags": {"highway": "traffic_signals"}}, {"type": "node", "id": 1315671154, "lat": 39.64798, "lon": 19.846705, "tags": {"highway": "traffic_signals"}}, {"type": "node", "id": 1315671172, "lat": 39.6477938, "lon": 19.8467029, "tags": {"highway": "traffic_signals"}}, {"type": "node", "id": 1315671195, "lat": 39.6518639, "lon": 19.842571, "tags": {"highway": "traffic_signals", "traffic_signals": "traffic_lights"}}, {"type": "node", "id": 1315671215, "lat": 39.6523997, "lon": 19.841876, "tags": {"highway": "traffic_signals"}}, {"type": "node", "id": 1315671217, "lat": 39.644588, "lon": 19.8503504, "tags": {"highway": "traffic_signals", "traffic_signals:direction": "forward"}}, {"type": "node", "id": 1315671219, "lat": 39.6480362, "lon": 19.8463142, "tags": {"highway": "traffic_signals"}}, {"type": "node", "id": 1316009061, "lat": 39.6268311, "lon": 19.904195, "tags": {"highway": "traffic_signals", "traffic_signals": "traffic_lights"}}, {"type": "node", "id": 1351147980, "lat": 39.6446328, "lon": 19.8539702, "tags": {"highway": "traffic_signals", "traffic_signals:direction": "forward"}}, {"type": "node", "id": 1421823958, "lat": 39.4919163, "lon": 20.2607151, "tags": {"highway": "traffic_signals"}}, {"type": "node", "id": 1421846151, "lat": 39.4917944, "lon": 20.2605478, "tags": {"highway": "traffic_signals"}}, {"type": "node", "id": 1422093785, "lat": 39.4980421, "lon": 20.2675667, "tags": {"highway": "traffic_signals", "traffic_signals": "blinker", "traffic_signals:direction": "backward"}}, {"type": "node", "id": 2921284981, "lat": 39.654612, "lon": 19.8403629, "tags": {"highway": "traffic_signals", "traffic_signals": "signal", "traffic_signals:direction": "backward"}}, {"type": "node", "id": 3918628257, "lat": 39.4921351, "lon": 20.2603064, "tags": {"button_operated": "no", "crossing": "traffic_signals", "direction": "forward", "highway": "traffic_signals", "traffic_signals:sound": "no", "traffic_signals:vibration": "no"}}, {"type": "node", "id": 4684719478, "lat": 39.4918615, "lon": 20.2604502, "tags": {"highway": "traffic_signals"}}, {"type": "node", "id": 4684719479, "lat": 39.4923265, "lon": 20.2605064, "tags": {"highway": "traffic_signals"}}, {"type": "node", "id": 5082492341, "lat": 39.542967, "lon": 20.2835945, "tags": {"highway": "traffic_signals", "traffic_signals": "signal"}}, {"type": "node", "id": 5082492342, "lat": 39.5430281, "lon": 20.2838208, "tags": {"highway": "traffic_signals", "traffic_signals": "signal"}}, {"type": "node", "id": 5082492343, "lat": 39.5431454, "lon": 20.283722, "tags": {"highway": "traffic_signals", "traffic_signals": "signal"}}, {"type": "node", "id": 5082492344, "lat": 39.5430824, "lon": 20.2835301, "tags": {"highway": "traffic_signals", "traffic_signals": "signal"}}, {"type": "node", "id": 5104661522, "lat": 39.493527, "lon": 20.2612334, "tags": {"highway": "traffic_signals", "traffic_signals": "blinker"}}, {"type": "node", "id": 5152048449, "lat": 39.4924168, "lon": 20.2605575, "tags": {"highway": "traffic_signals", "traffic_signals": "signal"}}, {"type": "node", "id": 5213140495, "lat": 39.5106704, "lon": 20.2589794, "tags": {"highway": "traffic_signals", "traffic_signals": "blinker"}}, {"type": "node", "id": 5302460303, "lat": 39.511108, "lon": 20.2568169, "tags": {"highway": "traffic_signals", "traffic_signals": "blinker"}}, {"type": "node", "id": 5405907261, "lat": 39.5145453, "lon": 20.2587473, "tags": {"highway": "traffic_signals", "traffic_signals": "blinker"}}, {"type": "node", "id": 5638381497, "lat": 39.663024, "lon": 19.8532621, "tags": {"crossing": "no", "highway": "traffic_signals", "note": "between the two signals, it's one way traffic and the direction changes every 2min30sec", "traffic_signals:direction": "forward"}}, {"type": "node", "id": 5775275820, "lat": 39.6290762, "lon": 19.8873205, "tags": {"highway": "traffic_signals", "traffic_signals": "signal"}}, {"type": "node", "id": 5775275821, "lat": 39.6291497, "lon": 19.8869605, "tags": {"highway": "traffic_signals", "traffic_signals": "signal"}}, {"type": "node", "id": 5775312408, "lat": 39.611035, "lon": 19.9044392, "tags": {"highway": "traffic_signals", "traffic_signals": "traffic_lights"}}, {"type": "node", "id": 5775312412, "lat": 39.6109804, "lon": 19.9041318, "tags": {"highway": "traffic_signals", "traffic_signals": "traffic_lights", "traffic_signals:direction": "forward"}}, {"type": "node", "id": 5775316400, "lat": 39.6109519, "lon": 19.9040283, "tags": {"highway": "traffic_signals", "traffic_signals": "traffic_lights", "traffic_signals:direction": "forward"}}, {"type": "node", "id": 7736695891, "lat": 39.4888534, "lon": 19.9264874, "tags": {"highway": "traffic_signals", "traffic_signals:direction": "backward"}}, {"type": "node", "id": 7986200469, "lat": 39.6210454, "lon": 19.9045226, "tags": {"highway": "traffic_signals", "traffic_signals": "traffic_lights"}}, {"type": "node", "id": 8747601514, "lat": 39.6283437, "lon": 19.9008253, "tags": {"highway": "traffic_signals"}}, {"type": "node", "id": 9242828854, "lat": 39.6248059, "lon": 19.8897058, "tags": {"highway": "traffic_signals", "traffic_signals": "traffic_lights"}}, {"type": "node", "id": 9242828855, "lat": 39.6247275, "lon": 19.8900823, "tags": {"highway": "traffic_signals", "traffic_signals": "traffic_lights"}}, {"type": "node", "id": 9573080986, "lat": 39.6246483, "lon": 19.8898547, "tags": {"highway": "traffic_signals", "traffic_signals": "traffic_lights"}}, {"type": "node", "id": 9573411379, "lat": 39.644598, "lon": 19.8540696, "tags": {"highway": "traffic_signals", "traffic_signals": "traffic_lights", "traffic_signals:direction": "forward"}}, {"type": "node", "id": 9574761108, "lat": 39.7422298, "lon": 19.9277863, "tags": {"highway": "traffic_signals", "traffic_signals": "signal"}}, {"type": "node", "id": 9839967126, "lat": 39.6109012, "lon": 19.9044794, "tags": {"highway": "traffic_signals", "traffic_signals": "traffic_lights", "traffic_signals:direction": "forward"}}, {"type": "node", "id": 9935864635, "lat": 39.6547573, "lon": 19.8405095, "tags": {"highway": "traffic_signals"}}, {"type": "node", "id": 9935864636, "lat": 39.6545682, "lon": 19.8407172, "tags": {"highway": "traffic_signals"}}, {"type": "node", "id": 9956892724, "lat": 39.6599447, "lon": 19.8387109, "tags": {"highway": "traffic_signals"}}, {"type": "node", "id": 9998268845, "lat": 39.626797, "lon": 19.9038082, "tags": {"highway": "traffic_signals"}}, {"type": "node", "id": 9998268846, "lat": 39.6283609, "lon": 19.9007167, "tags": {"highway": "traffic_signals", "traffic_signals:direction": "forward"}}, {"type": "node", "id": 10556686591, "lat": 39.6269235, "lon": 19.9039874, "tags": {"highway": "traffic_signals", "traffic_signals": "traffic_lights"}}, {"type": "node", "id": 10597313757, "lat": 39.6211219, "lon": 19.9047078, "tags": {"highway": "traffic_signals", "traffic_signals": "traffic_lights"}}, {"type": "node", "id": 10597313758, "lat": 39.6211325, "lon": 19.9047211, "tags": {"highway": "traffic_signals", "traffic_signals": "traffic_lights"}}, {"type": "node", "id": 10597313759, "lat": 39.6211543, "lon": 19.9044685, "tags": {"highway": "traffic_signals", "traffic_signals": "traffic_lights"}}, {"type": "node", "id": 10859953049, "lat": 39.6123607, "lon": 19.9084419, "tags": {"highway": "traffic_signals", "traffic_signals": "traffic_lights", "traffic_signals:direction": "forward"}}, {"type": "node", "id": 10859953051, "lat": 39.6129656, "lon": 19.9103055, "tags": {"highway": "traffic_signals", "traffic_signals": "traffic_lights", "traffic_signals:direction": "forward"}}, {"type": "node", "id": 10859953052, "lat": 39.612701, "lon": 19.9104084, "tags": {"highway": "traffic_signals", "traffic_signals": "traffic_lights", "traffic_signals:direction": "forward"}}, {"type": "node", "id": 10865135657, "lat": 39.6108385, "lon": 19.9041966, "tags": {"highway": "traffic_signals", "traffic_signals": "traffic_lights"}}, {"type": "node", "id": 11093002134, "lat": 39.4913615, "lon": 19.9270656, "tags": {"highway": "traffic_signals", "traffic_signals:direction": "forward"}}, {"type": "node", "id": 12063857156, "lat": 39.6577901, "lon": 19.8391353, "tags": {"highway": "traffic_signals"}}]}